start=new Date('2022-09-22T00:00:00.000Z').valueOf();
sats=[{"EPOCH":"2022-09-21T16:04:53.635872","PERIOD":"95.438","LAUNCH_DATE":"2022-04-29","MEAN_ANOMALY":"312.5355","SEMIMAJOR_AXIS":"6917.883","MEAN_ELEMENT_THEORY":"SGP4","COUNTRY_CODE":"US","INCLINATION":"53.2167","MEAN_MOTION_DOT":"-0.00000506","CENTER_NAME":"EARTH","RA_OF_ASC_NODE":"108.0209","MEAN_MOTION":"15.08839094","FILE":"3579752","NORAD_CAT_ID":"52360","REF_FRAME":"TEME","EPHEMERIS_TYPE":"0","TLE_LINE1":"1 52360U 22045AF  22264.67006523 -.00000506  00000-0 -13672-4 0  9990","REV_AT_EPOCH":"2493","ECCENTRICITY":"0.00018010","MEAN_MOTION_DDOT":"0.0000000000000","APOAPSIS":"540.994","OBJECT_TYPE":"PAYLOAD","RCS_SIZE":"LARGE","SITE":"AFETR","TIME_SYSTEM":"UTC","ELEMENT_SET_NO":"999","TLE_LINE2":"2 52360  53.2167 108.0209 0001801  47.5789 312.5355 15.08839094 24931","GP_ID":"213192911","OBJECT_ID":"2022-045AF","ARG_OF_PERICENTER":"47.5789","BSTAR":"-0.00001367200000","CLASSIFICATION_TYPE":"U","DECAY_DATE":null,"OBJECT_NAME":"STARLINK-3824","PERIAPSIS":"538.502"},{"REF_FRAME":"TEME","EPHEMERIS_TYPE":"0","CENTER_NAME":"EARTH","MEAN_MOTION_DOT":"-0.00000838","RA_OF_ASC_NODE":"117.9437","FILE":"3579752","MEAN_MOTION":"15.08836303","NORAD_CAT_ID":"52361","MEAN_ELEMENT_THEORY":"SGP4","SEMIMAJOR_AXIS":"6917.892","MEAN_ANOMALY":"313.5992","COUNTRY_CODE":"US","INCLINATION":"53.2174","PERIOD":"95.438","EPOCH":"2022-09-21T16:24:46.703232","LAUNCH_DATE":"2022-04-29","APOAPSIS":"540.901","REV_AT_EPOCH":"2481","TLE_LINE1":"1 52361U 22045AG  22264.68387388 -.00000838  00000-0 -34551-4 0  9990","ECCENTRICITY":"0.00016540","MEAN_MOTION_DDOT":"0.0000000000000","TLE_LINE2":"2 52361  53.2174 117.9437 0001654  46.5137 313.5992 15.08836303 24819","TIME_SYSTEM":"UTC","SITE":"AFETR","ELEMENT_SET_NO":"999","RCS_SIZE":"LARGE","OBJECT_TYPE":"PAYLOAD","PERIAPSIS":"538.612","DECAY_DATE":null,"OBJECT_NAME":"STARLINK-3728","CLASSIFICATION_TYPE":"U","GP_ID":"213192653","OBJECT_ID":"2022-045AG","ARG_OF_PERICENTER":"46.5137","BSTAR":"-0.00003455100000"},{"APOAPSIS":"541.087","MEAN_MOTION_DDOT":"0.0000000000000","TLE_LINE1":"1 52362U 22045AH  22264.86510680 -.00000746  00000-0 -28797-4 0  9997","REV_AT_EPOCH":"2497","ECCENTRICITY":"0.00019410","COUNTRY_CODE":"US","INCLINATION":"53.2164","MEAN_ELEMENT_THEORY":"SGP4","SEMIMAJOR_AXIS":"6917.880","MEAN_ANOMALY":"313.4761","LAUNCH_DATE":"2022-04-29","PERIOD":"95.438","EPOCH":"2022-09-21T20:45:45.227520","EPHEMERIS_TYPE":"0","REF_FRAME":"TEME","NORAD_CAT_ID":"52362","FILE":"3579752","MEAN_MOTION":"15.08840217","CENTER_NAME":"EARTH","MEAN_MOTION_DOT":"-0.00000746","RA_OF_ASC_NODE":"107.1419","DECAY_DATE":null,"CLASSIFICATION_TYPE":"U","OBJECT_NAME":"STARLINK-3848","ARG_OF_PERICENTER":"46.6393","BSTAR":"-0.00002879700000","GP_ID":"213191409","OBJECT_ID":"2022-045AH","PERIAPSIS":"538.402","RCS_SIZE":"LARGE","OBJECT_TYPE":"PAYLOAD","TLE_LINE2":"2 52362  53.2164 107.1419 0001941  46.6393 313.4761 15.08840217 24973","SITE":"AFETR","TIME_SYSTEM":"UTC","ELEMENT_SET_NO":"999"},{"TLE_LINE2":"2 52363  53.2184 117.0660 0001755  48.9728 311.1415 15.08829556 24844","ELEMENT_SET_NO":"999","SITE":"AFETR","TIME_SYSTEM":"UTC","RCS_SIZE":"LARGE","OBJECT_TYPE":"PAYLOAD","PERIAPSIS":"538.563","OBJECT_NAME":"STARLINK-3830","DECAY_DATE":null,"CLASSIFICATION_TYPE":"U","BSTAR":"-0.00015010000000","ARG_OF_PERICENTER":"48.9728","OBJECT_ID":"2022-045AJ","GP_ID":"213192661","EPHEMERIS_TYPE":"0","REF_FRAME":"TEME","NORAD_CAT_ID":"52363","FILE":"3579752","MEAN_MOTION":"15.08829556","RA_OF_ASC_NODE":"117.0660","CENTER_NAME":"EARTH","MEAN_MOTION_DOT":"-0.00002675","INCLINATION":"53.2184","COUNTRY_CODE":"US","MEAN_ANOMALY":"311.1415","SEMIMAJOR_AXIS":"6917.912","MEAN_ELEMENT_THEORY":"SGP4","LAUNCH_DATE":"2022-04-29","EPOCH":"2022-09-21T21:05:38.571360","PERIOD":"95.438","APOAPSIS":"540.991","MEAN_MOTION_DDOT":"0.0000000000000","ECCENTRICITY":"0.00017550","TLE_LINE1":"1 52363U 22045AJ  22264.87891865 -.00002675  00000-0 -15010-3 0  9992","REV_AT_EPOCH":"2484"},{"PERIAPSIS":"538.098","OBJECT_NAME":"STARLINK-3820","DECAY_DATE":null,"CLASSIFICATION_TYPE":"U","BSTAR":"-0.00006609000000","ARG_OF_PERICENTER":"49.0923","OBJECT_ID":"2022-045AK","GP_ID":"213192411","TLE_LINE2":"2 52364  53.2141 108.0551 0002406  49.0923 311.0278 15.08834489 24948","ELEMENT_SET_NO":"999","SITE":"AFETR","TIME_SYSTEM":"UTC","RCS_SIZE":"LARGE","OBJECT_TYPE":"PAYLOAD","APOAPSIS":"541.427","MEAN_MOTION_DDOT":"0.0000000000000","ECCENTRICITY":"0.00024060","REV_AT_EPOCH":"2494","TLE_LINE1":"1 52364U 22045AK  22264.65998872 -.00001340  00000-0 -66090-4 0  9998","EPHEMERIS_TYPE":"0","REF_FRAME":"TEME","MEAN_MOTION":"15.08834489","FILE":"3579752","NORAD_CAT_ID":"52364","RA_OF_ASC_NODE":"108.0551","MEAN_MOTION_DOT":"-0.00001340","CENTER_NAME":"EARTH","INCLINATION":"53.2141","COUNTRY_CODE":"US","SEMIMAJOR_AXIS":"6917.897","MEAN_ELEMENT_THEORY":"SGP4","MEAN_ANOMALY":"311.0278","LAUNCH_DATE":"2022-04-29","EPOCH":"2022-09-21T15:50:23.025408","PERIOD":"95.438"},{"PERIAPSIS":"538.478","DECAY_DATE":null,"CLASSIFICATION_TYPE":"U","OBJECT_NAME":"STARLINK-3874","GP_ID":"213193154","OBJECT_ID":"2022-045AL","ARG_OF_PERICENTER":"55.2788","BSTAR":"0.00007306100000","TLE_LINE2":"2 52365  53.2156 107.9934 0001819  55.2788 304.8376 15.08842904 24943","SITE":"AFETR","TIME_SYSTEM":"UTC","ELEMENT_SET_NO":"999","RCS_SIZE":"LARGE","OBJECT_TYPE":"PAYLOAD","APOAPSIS":"540.995","REV_AT_EPOCH":"2494","TLE_LINE1":"1 52365U 22045AL  22264.67374353  .00000875  00000-0  73061-4 0  9999","ECCENTRICITY":"0.00018190","MEAN_MOTION_DDOT":"0.0000000000000","REF_FRAME":"TEME","EPHEMERIS_TYPE":"0","MEAN_MOTION_DOT":"0.00000875","CENTER_NAME":"EARTH","RA_OF_ASC_NODE":"107.9934","MEAN_MOTION":"15.08842904","FILE":"3579752","NORAD_CAT_ID":"52365","MEAN_ELEMENT_THEORY":"SGP4","SEMIMAJOR_AXIS":"6917.872","MEAN_ANOMALY":"304.8376","COUNTRY_CODE":"US","INCLINATION":"53.2156","EPOCH":"2022-09-21T16:10:11.440992","PERIOD":"95.437","LAUNCH_DATE":"2022-04-29"},{"APOAPSIS":"541.053","MEAN_MOTION_DDOT":"0.0000000000000","ECCENTRICITY":"0.00018330","TLE_LINE1":"1 52366U 22045AM  22264.85407314 -.00000767  00000-0 -30101-4 0  9994","REV_AT_EPOCH":"2497","INCLINATION":"53.2160","COUNTRY_CODE":"US","SEMIMAJOR_AXIS":"6917.920","MEAN_ELEMENT_THEORY":"SGP4","MEAN_ANOMALY":"317.1907","LAUNCH_DATE":"2022-04-29","EPOCH":"2022-09-21T20:29:51.919296","PERIOD":"95.438","EPHEMERIS_TYPE":"0","REF_FRAME":"TEME","FILE":"3579752","NORAD_CAT_ID":"52366","MEAN_MOTION":"15.08826911","RA_OF_ASC_NODE":"107.1829","CENTER_NAME":"EARTH","MEAN_MOTION_DOT":"-0.00000767","DECAY_DATE":null,"CLASSIFICATION_TYPE":"U","OBJECT_NAME":"STARLINK-3808","BSTAR":"-0.00003010100000","ARG_OF_PERICENTER":"42.9227","OBJECT_ID":"2022-045AM","GP_ID":"213191910","PERIAPSIS":"538.517","RCS_SIZE":"LARGE","OBJECT_TYPE":"PAYLOAD","TLE_LINE2":"2 52366  53.2160 107.1829 0001833  42.9227 317.1907 15.08826911 24971","ELEMENT_SET_NO":"999","SITE":"AFETR","TIME_SYSTEM":"UTC"},{"BSTAR":"-0.00011906000000","ARG_OF_PERICENTER":"46.5158","OBJECT_ID":"2022-045AN","GP_ID":"213192161","DECAY_DATE":null,"CLASSIFICATION_TYPE":"U","OBJECT_NAME":"STARLINK-3817","PERIAPSIS":"538.283","OBJECT_TYPE":"PAYLOAD","RCS_SIZE":"LARGE","ELEMENT_SET_NO":"999","TIME_SYSTEM":"UTC","SITE":"AFETR","TLE_LINE2":"2 52367  53.2149 107.1522 0002117  46.5158 313.6009 15.08839453 24977","MEAN_MOTION_DDOT":"0.0000000000000","ECCENTRICITY":"0.00021170","TLE_LINE1":"1 52367U 22045AN  22264.86143509 -.00002183  00000-0 -11906-3 0  9994","REV_AT_EPOCH":"2497","APOAPSIS":"541.212","LAUNCH_DATE":"2022-04-29","PERIOD":"95.438","EPOCH":"2022-09-21T20:40:27.991776","INCLINATION":"53.2149","COUNTRY_CODE":"US","MEAN_ANOMALY":"313.6009","SEMIMAJOR_AXIS":"6917.882","MEAN_ELEMENT_THEORY":"SGP4","FILE":"3579752","NORAD_CAT_ID":"52367","MEAN_MOTION":"15.08839453","RA_OF_ASC_NODE":"107.1522","MEAN_MOTION_DOT":"-0.00002183","CENTER_NAME":"EARTH","EPHEMERIS_TYPE":"0","REF_FRAME":"TEME"},{"ECCENTRICITY":"0.00017810","TLE_LINE1":"1 52368U 22045AP  22264.71054703 -.00000471  00000-0 -11484-4 0  9996","REV_AT_EPOCH":"2494","MEAN_MOTION_DDOT":"0.0000000000000","APOAPSIS":"540.976","PERIOD":"95.438","EPOCH":"2022-09-21T17:03:11.263392","LAUNCH_DATE":"2022-04-29","SEMIMAJOR_AXIS":"6917.879","MEAN_ANOMALY":"305.8827","MEAN_ELEMENT_THEORY":"SGP4","INCLINATION":"53.2160","COUNTRY_CODE":"US","RA_OF_ASC_NODE":"107.8251","CENTER_NAME":"EARTH","MEAN_MOTION_DOT":"-0.00000471","FILE":"3579752","NORAD_CAT_ID":"52368","MEAN_MOTION":"15.08840387","REF_FRAME":"TEME","EPHEMERIS_TYPE":"0","OBJECT_ID":"2022-045AP","GP_ID":"213192912","BSTAR":"-0.00001148400000","ARG_OF_PERICENTER":"54.2331","DECAY_DATE":null,"CLASSIFICATION_TYPE":"U","OBJECT_NAME":"STARLINK-3834","PERIAPSIS":"538.512","OBJECT_TYPE":"PAYLOAD","RCS_SIZE":"LARGE","ELEMENT_SET_NO":"999","SITE":"AFETR","TIME_SYSTEM":"UTC","TLE_LINE2":"2 52368  53.2160 107.8251 0001781  54.2331 305.8827 15.08840387 24948"},{"OBJECT_TYPE":"PAYLOAD","RCS_SIZE":"LARGE","TIME_SYSTEM":"UTC","SITE":"AFETR","ELEMENT_SET_NO":"999","TLE_LINE2":"2 52369  53.2164 108.0589 0001816  58.3452 301.7717 15.08837203 24944","GP_ID":"213192654","OBJECT_ID":"2022-045AQ","ARG_OF_PERICENTER":"58.3452","BSTAR":"0.00000538870000","DECAY_DATE":null,"OBJECT_NAME":"STARLINK-3841","CLASSIFICATION_TYPE":"U","PERIAPSIS":"538.498","EPOCH":"2022-09-21T15:49:00.271488","PERIOD":"95.438","LAUNCH_DATE":"2022-04-29","MEAN_ELEMENT_THEORY":"SGP4","SEMIMAJOR_AXIS":"6917.889","MEAN_ANOMALY":"301.7717","COUNTRY_CODE":"US","INCLINATION":"53.2164","MEAN_MOTION_DOT":"-0.00000202","CENTER_NAME":"EARTH","RA_OF_ASC_NODE":"108.0589","FILE":"3579752","MEAN_MOTION":"15.08837203","NORAD_CAT_ID":"52369","REF_FRAME":"TEME","EPHEMERIS_TYPE":"0","REV_AT_EPOCH":"2494","TLE_LINE1":"1 52369U 22045AQ  22264.65903092 -.00000202  00000-0  53887-5 0  9999","ECCENTRICITY":"0.00018160","MEAN_MOTION_DDOT":"0.0000000000000","APOAPSIS":"541.010"}];
